H1 CPF 01  gfz 2022 01 08 13  5082 terrasarx 
H2 0702601  6201 31698    2022 01 08 12 59 42 2022 01 13 00 00 42   120 1 1  0 0 0
H9
10 0 59590  52542.000000  0    3201765.634   2890461.981   5361198.873
10 0 59590  52662.000000  0    2803722.099   2235269.202   5871718.468
10 0 59590  52782.000000  0    2344986.194   1548546.437   6278991.904
10 0 59590  52902.000000  0    1833143.357    843288.445   6575896.702
10 0 59590  53022.000000  0    1276926.691    132660.781   6757245.671
10 0 59590  53142.000000  0     686066.004   -570244.624   6819872.532
10 0 59590  53262.000000  0      71117.011  -1252650.834   6762684.899
10 0 59590  53382.000000  0    -556727.512  -1902328.047   6586681.693
10 0 59590  53502.000000  0   -1185841.312  -2507812.791   6294935.926
10 0 59590  53622.000000  0   -1804378.125  -3058610.067   5892542.890
10 0 59590  53742.000000  0   -2400492.508  -3545376.545   5386537.784
10 0 59590  53862.000000  0   -2962568.182  -3960083.522   4785780.839
10 0 59590  53982.000000  0   -3479448.797  -4296154.820   4100807.732
10 0 59590  54102.000000  0   -3940663.022  -4548575.893   3343647.704
10 0 59590  54222.000000  0   -4336639.562  -4713972.800   2527613.864
10 0 59590  54342.000000  0   -4658909.099  -4790659.671   1667068.599
10 0 59590  54462.000000  0   -4900287.765  -4778651.702    777166.292
10 0 59590  54582.000000  0   -5055036.644  -4679643.226   -126420.140
10 0 59590  54702.000000  0   -5118993.661  -4496951.648  -1027783.672
10 0 59590  54822.000000  0   -5089673.778  -4235428.238  -1911072.981
10 0 59590  54942.000000  0   -4966334.107  -3901337.181  -2760780.180
10 0 59590  55062.000000  0   -4750002.860  -3502207.389  -3562018.398
10 0 59590  55182.000000  0   -4443473.283  -3046662.252  -4300784.348
10 0 59590  55302.000000  0   -4051262.990  -2544231.279  -4964201.755
10 0 59590  55422.000000  0   -3579539.721  -2005148.202  -5540740.578
10 0 59590  55542.000000  0   -3036016.625  -1440140.963  -6020409.039
10 0 59590  55662.000000  0   -2429819.849   -860217.698  -6394916.512
10 0 59590  55782.000000  0   -1771330.443   -276453.477  -6657805.597
10 0 59590  55902.000000  0   -1072004.461    300217.849  -6804551.289
10 0 59590  56022.000000  0    -344176.407    859202.919  -6832629.618
10 0 59590  56142.000000  0     399153.593   1390438.600  -6741556.336
10 0 59590  56262.000000  0    1144545.181   1884567.752  -6532895.350
10 0 59590  56382.000000  0    1878356.044   2333101.407  -6210236.428
10 0 59590  56502.000000  0    2586986.757   2728563.320  -5779139.888
10 0 59590  56622.000000  0    3257129.631   3064614.796  -5247049.431
10 0 59590  56742.000000  0    3876016.602   3336158.002  -4623175.388
10 0 59590  56862.000000  0    4431665.049   3539417.266  -3918346.977
10 0 59590  56982.000000  0    4913115.071   3671994.643  -3144833.562
10 0 59590  57102.000000  0    5310651.651   3732898.481  -2316137.237
10 0 59590  57222.000000  0    5616007.744   3722545.099  -1446760.683
10 0 59590  57342.000000  0    5822543.089   3642731.207   -551952.361
10 0 59590  57462.000000  0    5925393.066   3496577.905    352564.548
10 0 59590  57582.000000  0    5921584.481   3288447.394   1250875.038
10 0 59590  57702.000000  0    5810113.230   3023833.628   2127160.952
10 0 59590  57822.000000  0    5591982.157   2709230.717   2965988.027
10 0 59590  57942.000000  0    5270198.533   2351981.670   3752586.548
10 0 59590  58062.000000  0    4849729.438   1960110.919   4473117.718
10 0 59590  58182.000000  0    4337418.158   1542146.047   5114918.509
10 0 59590  58302.000000  0    3741867.279   1106933.338   5666724.666
10 0 59590  58422.000000  0    3073283.979    663450.730   6118867.058
10 0 59590  58542.000000  0    2343296.579    220622.980   6463433.616
10 0 59590  58662.000000  0    1564748.377   -212855.929   6694401.166
10 0 59590  58782.000000  0     751469.047   -628692.318   6807736.585
10 0 59590  58902.000000  0     -81973.595  -1019150.953   6801462.876
10 0 59590  59022.000000  0    -920534.612  -1377198.147   6675690.601
10 0 59590  59142.000000  0   -1748962.751  -1696628.612   6432615.045
10 0 59590  59262.000000  0   -2552075.798  -1972172.456   6076479.186
10 0 59590  59382.000000  0   -3315037.382  -2199582.005   5613506.495
10 0 59590  59502.000000  0   -4023635.381  -2375699.231   5051800.138
10 0 59590  59622.000000  0   -4664551.995  -2498500.189   4401205.714
10 0 59590  59742.000000  0   -5225620.348  -2567115.126   3673142.457
10 0 59590  59862.000000  0   -5696062.410  -2581823.757   2880405.632
10 0 59590  59982.000000  0   -6066704.372  -2544026.864   2036943.048
10 0 59590  60102.000000  0   -6330164.806  -2456195.311   1157607.265
10 0 59590  60222.000000  0   -6481007.948  -2321794.944    257886.665
10 0 59590  60342.000000  0   -6515858.158  -2145190.034   -646374.776
10 0 59590  60462.000000  0   -6433474.144  -1931528.013  -1539266.275
10 0 59590  60582.000000  0   -6234778.107  -1686608.588  -2405099.188
10 0 59590  60702.000000  0   -5922841.602  -1416740.935  -3228689.107
10 0 59590  60822.000000  0   -5502829.010  -1128592.628  -3995625.788
10 0 59590  60942.000000  0   -4981900.814   -829034.176  -4692525.629
10 0 59590  61062.000000  0   -4369079.466   -524982.643  -5307262.097
10 0 59590  61182.000000  0   -3675081.005   -223248.752  -5829169.881
10 0 59590  61302.000000  0   -2912117.785     69609.496  -6249219.523
10 0 59590  61422.000000  0   -2093677.850    347423.356  -6560161.465
10 0 59590  61542.000000  0   -1234284.437    604537.018  -6756639.963
10 0 59590  61662.000000  0    -349240.016    835917.633  -6835275.311
10 0 59590  61782.000000  0     545640.454   1037250.474  -6794714.381
10 0 59590  61902.000000  0    1434303.987   1205016.144  -6635652.848
10 0 59590  62022.000000  0    2300741.997   1336551.223  -6360826.384
10 0 59590  62142.000000  0    3129273.457   1430090.435  -5974968.386
10 0 59590  62262.000000  0    3904824.856   1484789.078  -5484735.594
10 0 59590  62382.000000  0    4613202.712   1500726.060  -4898604.494
10 0 59590  62502.000000  0    5241357.163   1478887.718  -4226736.659
10 0 59590  62622.000000  0    5777629.039   1421131.891  -3480812.257
10 0 59590  62742.000000  0    6211975.268   1330132.664  -2673835.440
10 0 59590  62862.000000  0    6536169.018   1209306.933  -1819913.397
10 0 59590  62982.000000  0    6743968.221   1062724.232   -934010.386
10 0 59590  63102.000000  0    6831246.556    895000.898    -31682.303
10 0 59590  63222.000000  0    6796082.580    711182.185    871202.446
10 0 59590  63342.000000  0    6638806.670    516615.003   1758748.806
10 0 59590  63462.000000  0    6362003.075    316813.128   2615324.753
10 0 59590  63582.000000  0    5970464.242    117319.896   3425845.306
10 0 59590  63702.000000  0    5471101.730    -76429.087   4176045.119
10 0 59590  63822.000000  0    4872815.177   -259237.633   4852732.600
10 0 59590  63942.000000  0    4186324.705   -426274.446   5444024.223
10 0 59590  64062.000000  0    3423967.131   -573188.328   5939550.911
10 0 59590  64182.000000  0    2599465.834   -696209.344   6330635.024
10 0 59590  64302.000000  0    1727677.509   -792235.781   6610436.484
10 0 59590  64422.000000  0     824320.418   -858904.684   6774067.617
10 0 59590  64542.000000  0     -94312.289   -894644.728   6818673.032
10 0 59590  64662.000000  0   -1011646.499   -898710.410   6743474.998
10 0 59590  64782.000000  0   -1911124.849   -871197.340   6549785.496
10 0 59590  64902.000000  0   -2776503.849   -813037.633   6240984.378
10 0 59590  65022.000000  0   -3592146.409   -725975.992   5822465.323
10 0 59590  65142.000000  0   -4343307.394   -612527.045   5301548.541
10 0 59590  65262.000000  0   -5016406.228   -475914.886   4687359.110
10 0 59590  65382.000000  0   -5599280.079   -319995.250   3990671.752
10 0 59590  65502.000000  0   -6081412.327   -149162.063   3223724.775
10 0 59590  65622.000000  0   -6454131.630     31759.857   2400007.155
10 0 59590  65742.000000  0   -6710778.676    217634.082   1534020.147
10 0 59590  65862.000000  0   -6846834.000    403140.001    641016.926
10 0 59590  65982.000000  0   -6860003.410    582905.518   -263273.757
10 0 59590  66102.000000  0   -6750258.107    751642.121  -1162933.922
10 0 59590  66222.000000  0   -6519828.051    904278.248  -2042145.228
10 0 59590  66342.000000  0   -6173152.014   1036087.555  -2885473.385
10 0 59590  66462.000000  0   -5716784.189   1142809.933  -3678146.584
10 0 59590  66582.000000  0   -5159256.528   1220760.623  -4406316.653
10 0 59590  66702.000000  0   -4510906.235   1266925.611  -5057298.481
10 0 59590  66822.000000  0   -3783671.839   1279041.168  -5619784.766
10 0 59590  66942.000000  0   -2990864.081   1255656.074  -6084032.917
10 0 59590  67062.000000  0   -2146916.377   1196174.806  -6442022.927
10 0 59590  67182.000000  0   -1267119.475   1100882.921  -6687584.685
10 0 59590  67302.000000  0    -367345.390    970953.110  -6816492.609
10 0 59590  67422.000000  0     536232.968    808432.188  -6826529.359
10 0 59590  67542.000000  0    1427424.313    616209.670  -6717521.572
10 0 59590  67662.000000  0    2290303.756    397967.396  -6491343.787
10 0 59590  67782.000000  0    3109491.337    158111.603  -6151889.276
10 0 59590  67902.000000  0    3870422.670    -98311.691  -5705009.759
10 0 59590  68022.000000  0    4559605.679   -365717.728  -5158423.810
10 0 59590  68142.000000  0    5164862.709   -638097.774  -4521596.166
10 0 59590  68262.000000  0    5675553.182   -909146.849  -3805584.483
10 0 59590  68382.000000  0    6082770.073  -1172401.470  -3022856.379
10 0 59590  68502.000000  0    6379506.872  -1421385.119  -2187078.899
10 0 59590  68622.000000  0    6560790.813  -1649757.967  -1312882.734
10 0 59590  68742.000000  0    6623777.539  -1851466.967   -415604.990
10 0 59590  68862.000000  0    6567804.720  -2020892.675    488983.946
10 0 59590  68982.000000  0    6394402.519  -2152989.329   1384965.084
99
